IRIDIUM 116             
1 43072U 17083C   25247.93151658  .00000051  00000+0  11101-4 0  9996
2 43072  86.3904  81.2576 0002340  86.8942 273.2521 14.34217831403286
IRIDIUM 130             
1 43073U 17083D   25247.89980461  .00000090  00000+0  24897-4 0  9993
2 43073  86.3912  81.5186 0002482  92.2884 267.8596 14.34217636403227
IRIDIUM 151             
1 43074U 17083E   25247.94420237  .00000022  00000+0  73559-6 0  9996
2 43074  86.3908  81.3037 0002224  86.2175 273.9275 14.34217718403252
IRIDIUM 134             
1 43075U 17083F   25247.91248974  .00000012  00000+0 -26226-5 0  9998
2 43075  86.3908  81.3209 0002269  92.4220 267.7236 14.34217524403212
IRIDIUM 137             
1 43076U 17083G   25247.92517638 -.00000003  00000+0 -83026-5 0  9998
2 43076  86.3910  81.4028 0002438  75.9475 284.1992 14.34217408403282
IRIDIUM 141             
1 43077U 17083H   25247.91883211  .00000032  00000+0  45386-5 0  9998
2 43077  86.3904  81.2521 0001980  89.1718 270.9705 14.34217642403285
IRIDIUM 153             
1 43078U 17083J   25247.94077899  .00000090  00000+0  25148-4 0  9996
2 43078  86.3939  49.6967 0001820  99.1786 260.9615 14.34217368404392
IRIDIUM 131             
1 43079U 17083K   25247.90614683  .00000055  00000+0  12424-4 0  9995
2 43079  86.3911  81.4247 0002006  86.1151 274.0274 14.34217733403210
